start=new Date('2023-06-05T00:00:00.000Z').valueOf();
sats=[{"INCLINATION":"53.2180","DECAY_DATE":null,"REF_FRAME":"TEME","RA_OF_ASC_NODE":"342.7443","TLE_LINE2":"2 52703  53.2180 342.7443 0001087 102.6715 257.4399 15.08843282 57746","GP_ID":"233218140","FILE":"3925173","OBJECT_NAME":"STARLINK-4020","PERIAPSIS":"538.983","ELEMENT_SET_NO":"999","OBJECT_TYPE":"PAYLOAD","COUNTRY_CODE":"US","PERIOD":"95.437","NORAD_CAT_ID":"52703","REV_AT_EPOCH":"5774","SITE":"AFETR","CENTER_NAME":"EARTH","MEAN_MOTION":"15.08843282","EPOCH":"2023-06-04T21:42:38.921760","SEMIMAJOR_AXIS":"6917.870","ARG_OF_PERICENTER":"102.6715","CLASSIFICATION_TYPE":"U","MEAN_ANOMALY":"257.4399","MEAN_ELEMENT_THEORY":"SGP4","OBJECT_ID":"2022-053AZ","BSTAR":"0.00013285000000","ECCENTRICITY":"0.00010870","LAUNCH_DATE":"2022-05-18","MEAN_MOTION_DDOT":"0.0000000000000","EPHEMERIS_TYPE":"0","RCS_SIZE":"LARGE","MEAN_MOTION_DOT":"0.00001827","TLE_LINE1":"1 52703U 22053AZ  23155.90461715  .00001827  00000-0  13285-3 0  9998","TIME_SYSTEM":"UTC","APOAPSIS":"540.487"},{"REV_AT_EPOCH":"5900","NORAD_CAT_ID":"52704","PERIOD":"95.437","CENTER_NAME":"EARTH","SITE":"AFETR","GP_ID":"233218390","TLE_LINE2":"2 52704  53.2177 343.2607 0001102  95.6007 264.5111 15.08847116 59006","DECAY_DATE":null,"REF_FRAME":"TEME","RA_OF_ASC_NODE":"343.2607","INCLINATION":"53.2177","COUNTRY_CODE":"US","OBJECT_TYPE":"PAYLOAD","PERIAPSIS":"538.961","ELEMENT_SET_NO":"999","OBJECT_NAME":"STARLINK-3999","FILE":"3925173","RCS_SIZE":"LARGE","MEAN_MOTION_DOT":"0.00001455","EPHEMERIS_TYPE":"0","APOAPSIS":"540.486","TIME_SYSTEM":"UTC","TLE_LINE1":"1 52704U 22053BA  23155.78685188  .00001455  00000-0  10949-3 0  9998","OBJECT_ID":"2022-053BA","MEAN_ELEMENT_THEORY":"SGP4","ARG_OF_PERICENTER":"95.6007","CLASSIFICATION_TYPE":"U","MEAN_ANOMALY":"264.5111","MEAN_MOTION":"15.08847116","SEMIMAJOR_AXIS":"6917.859","EPOCH":"2023-06-04T18:53:04.002432","LAUNCH_DATE":"2022-05-18","MEAN_MOTION_DDOT":"0.0000000000000","ECCENTRICITY":"0.00011020","BSTAR":"0.00010949000000"},{"ECCENTRICITY":"0.00008910","BSTAR":"0.00025223000000","LAUNCH_DATE":"2022-05-18","MEAN_MOTION_DDOT":"0.0000000000000","MEAN_MOTION":"15.08848262","EPOCH":"2023-06-04T21:47:56.666400","SEMIMAJOR_AXIS":"6917.855","ARG_OF_PERICENTER":"95.1121","CLASSIFICATION_TYPE":"U","MEAN_ANOMALY":"264.9973","MEAN_ELEMENT_THEORY":"SGP4","OBJECT_ID":"2022-053BB","TLE_LINE1":"1 52705U 22053BB  23155.90829475  .00003730  00000-0  25223-3 0  9991","TIME_SYSTEM":"UTC","APOAPSIS":"540.337","EPHEMERIS_TYPE":"0","RCS_SIZE":"LARGE","MEAN_MOTION_DOT":"0.00003730","FILE":"3925173","OBJECT_NAME":"STARLINK-3844","PERIAPSIS":"539.104","ELEMENT_SET_NO":"999","OBJECT_TYPE":"PAYLOAD","COUNTRY_CODE":"US","INCLINATION":"53.2172","DECAY_DATE":null,"REF_FRAME":"TEME","RA_OF_ASC_NODE":"342.7154","TLE_LINE2":"2 52705  53.2172 342.7154 0000891  95.1121 264.9973 15.08848262 59024","GP_ID":"233219142","SITE":"AFETR","CENTER_NAME":"EARTH","PERIOD":"95.437","NORAD_CAT_ID":"52705","REV_AT_EPOCH":"5902"},{"MEAN_MOTION_DOT":"0.00002537","RCS_SIZE":"LARGE","EPHEMERIS_TYPE":"0","APOAPSIS":"540.310","TIME_SYSTEM":"UTC","TLE_LINE1":"1 52706U 22053BC  23155.91197264  .00002537  00000-0  17739-3 0  9994","OBJECT_ID":"2022-053BC","MEAN_ELEMENT_THEORY":"SGP4","CLASSIFICATION_TYPE":"U","MEAN_ANOMALY":"279.1284","ARG_OF_PERICENTER":"80.9804","EPOCH":"2023-06-04T21:53:14.436096","SEMIMAJOR_AXIS":"6917.859","MEAN_MOTION":"15.08847084","MEAN_MOTION_DDOT":"0.0000000000000","LAUNCH_DATE":"2022-05-18","ECCENTRICITY":"0.00008470","BSTAR":"0.00017739000000","REV_AT_EPOCH":"5902","NORAD_CAT_ID":"52706","PERIOD":"95.437","CENTER_NAME":"EARTH","SITE":"AFETR","GP_ID":"233218892","TLE_LINE2":"2 52706  53.2181 342.6995 0000847  80.9804 279.1284 15.08847084 59022","RA_OF_ASC_NODE":"342.6995","REF_FRAME":"TEME","DECAY_DATE":null,"INCLINATION":"53.2181","OBJECT_TYPE":"PAYLOAD","COUNTRY_CODE":"US","ELEMENT_SET_NO":"999","PERIAPSIS":"539.138","OBJECT_NAME":"STARLINK-3970","FILE":"3925173"},{"MEAN_MOTION":"15.08841877","EPOCH":"2023-06-04T21:21:25.873056","SEMIMAJOR_AXIS":"6917.875","ARG_OF_PERICENTER":"93.5654","MEAN_ANOMALY":"266.5467","CLASSIFICATION_TYPE":"U","MEAN_ELEMENT_THEORY":"SGP4","OBJECT_ID":"2022-053BD","ECCENTRICITY":"0.00011300","BSTAR":"0.00008132400000","LAUNCH_DATE":"2022-05-18","MEAN_MOTION_DDOT":"0.0000000000000","EPHEMERIS_TYPE":"0","RCS_SIZE":"LARGE","MEAN_MOTION_DOT":"0.00001007","TLE_LINE1":"1 52707U 22053BD  23155.88988279  .00001007  00000-0  81324-4 0  9998","TIME_SYSTEM":"UTC","APOAPSIS":"540.521","INCLINATION":"53.2180","DECAY_DATE":null,"RA_OF_ASC_NODE":"342.6822","REF_FRAME":"TEME","TLE_LINE2":"2 52707  53.2180 342.6822 0001130  93.5654 266.5467 15.08841877 59083","GP_ID":"233217640","FILE":"3925173","OBJECT_NAME":"STARLINK-4007","PERIAPSIS":"538.958","ELEMENT_SET_NO":"999","COUNTRY_CODE":"US","OBJECT_TYPE":"PAYLOAD","PERIOD":"95.437","NORAD_CAT_ID":"52707","REV_AT_EPOCH":"5908","SITE":"AFETR","CENTER_NAME":"EARTH"},{"TLE_LINE2":"2 52708  53.2169 343.1859 0001142  98.1949 261.9173 15.08843026 59214","GP_ID":"233217890","INCLINATION":"53.2169","DECAY_DATE":null,"REF_FRAME":"TEME","RA_OF_ASC_NODE":"343.1859","PERIAPSIS":"538.946","ELEMENT_SET_NO":"999","OBJECT_TYPE":"PAYLOAD","COUNTRY_CODE":"US","FILE":"3925173","OBJECT_NAME":"STARLINK-3962","NORAD_CAT_ID":"52708","REV_AT_EPOCH":"5921","PERIOD":"95.437","SITE":"AFETR","CENTER_NAME":"EARTH","MEAN_ELEMENT_THEORY":"SGP4","OBJECT_ID":"2022-053BE","MEAN_MOTION":"15.08843026","SEMIMAJOR_AXIS":"6917.871","EPOCH":"2023-06-04T19:14:15.819072","ARG_OF_PERICENTER":"98.1949","CLASSIFICATION_TYPE":"U","MEAN_ANOMALY":"261.9173","LAUNCH_DATE":"2022-05-18","MEAN_MOTION_DDOT":"0.0000000000000","ECCENTRICITY":"0.00011420","BSTAR":"0.00003334700000","EPHEMERIS_TYPE":"0","RCS_SIZE":"LARGE","MEAN_MOTION_DOT":"0.00000243","APOAPSIS":"540.526","TIME_SYSTEM":"UTC","TLE_LINE1":"1 52708U 22053BE  23155.80157198  .00000243  00000-0  33347-4 0  9992"},{"MEAN_MOTION_DOT":"0.00001073","RCS_SIZE":"LARGE","EPHEMERIS_TYPE":"0","APOAPSIS":"540.307","TLE_LINE1":"1 52830U 22062A   23155.53109123  .00001073  00000-0  85464-4 0  9992","TIME_SYSTEM":"UTC","OBJECT_ID":"2022-062A","MEAN_ELEMENT_THEORY":"SGP4","CLASSIFICATION_TYPE":"U","MEAN_ANOMALY":"261.8113","ARG_OF_PERICENTER":"98.2972","EPOCH":"2023-06-04T12:44:46.282272","SEMIMAJOR_AXIS":"6917.877","MEAN_MOTION":"15.08841265","MEAN_MOTION_DDOT":"0.0000000000000","LAUNCH_DATE":"2022-06-17","BSTAR":"0.00008546400000","ECCENTRICITY":"0.00008170","REV_AT_EPOCH":"5343","NORAD_CAT_ID":"52830","PERIOD":"95.437","CENTER_NAME":"EARTH","SITE":"AFETR","GP_ID":"233184810","TLE_LINE2":"2 52830  53.2157 244.4094 0000817  98.2972 261.8113 15.08841265 53430","REF_FRAME":"TEME","RA_OF_ASC_NODE":"244.4094","DECAY_DATE":null,"INCLINATION":"53.2157","COUNTRY_CODE":"US","OBJECT_TYPE":"PAYLOAD","ELEMENT_SET_NO":"999","PERIAPSIS":"539.176","OBJECT_NAME":"STARLINK-4091","FILE":"3924842"},{"CENTER_NAME":"EARTH","SITE":"AFETR","PERIOD":"95.438","REV_AT_EPOCH":"5393","NORAD_CAT_ID":"52831","OBJECT_NAME":"STARLINK-4089","FILE":"3925130","OBJECT_TYPE":"PAYLOAD","COUNTRY_CODE":"US","PERIAPSIS":"539.201","ELEMENT_SET_NO":"999","DECAY_DATE":null,"REF_FRAME":"TEME","RA_OF_ASC_NODE":"244.6560","INCLINATION":"53.2153","GP_ID":"233194353","TLE_LINE2":"2 52831  53.2153 244.6560 0000800  80.4574 279.6509 15.08837134 53931","TLE_LINE1":"1 52831U 22062B   23155.47589541  .00000487  00000-0  48676-4 0  9994","TIME_SYSTEM":"UTC","APOAPSIS":"540.308","RCS_SIZE":"LARGE","MEAN_MOTION_DOT":"0.00000487","EPHEMERIS_TYPE":"0","ECCENTRICITY":"0.00008000","BSTAR":"0.00004867600000","LAUNCH_DATE":"2022-06-17","MEAN_MOTION_DDOT":"0.0000000000000","ARG_OF_PERICENTER":"80.4574","MEAN_ANOMALY":"279.6509","CLASSIFICATION_TYPE":"U","MEAN_MOTION":"15.08837134","SEMIMAJOR_AXIS":"6917.889","EPOCH":"2023-06-04T11:25:17.363424","OBJECT_ID":"2022-062B","MEAN_ELEMENT_THEORY":"SGP4"},{"MEAN_MOTION_DOT":"0.00001579","RCS_SIZE":"LARGE","EPHEMERIS_TYPE":"0","TIME_SYSTEM":"UTC","TLE_LINE1":"1 52832U 22062C   23155.67092996  .00001579  00000-0  11727-3 0  9999","APOAPSIS":"540.337","CLASSIFICATION_TYPE":"U","MEAN_ANOMALY":"266.9912","ARG_OF_PERICENTER":"93.1179","EPOCH":"2023-06-04T16:06:08.348544","SEMIMAJOR_AXIS":"6917.871","MEAN_MOTION":"15.08843041","OBJECT_ID":"2022-062C","MEAN_ELEMENT_THEORY":"SGP4","ECCENTRICITY":"0.00008690","BSTAR":"0.00011727000000","MEAN_MOTION_DDOT":"0.0000000000000","LAUNCH_DATE":"2022-06-17","PERIOD":"95.437","REV_AT_EPOCH":"5345","NORAD_CAT_ID":"52832","CENTER_NAME":"EARTH","SITE":"AFETR","REF_FRAME":"TEME","RA_OF_ASC_NODE":"243.7838","DECAY_DATE":null,"INCLINATION":"53.2162","GP_ID":"233218652","TLE_LINE2":"2 52832  53.2162 243.7838 0000869  93.1179 266.9912 15.08843041 53455","OBJECT_NAME":"STARLINK-4083","FILE":"3925173","OBJECT_TYPE":"PAYLOAD","COUNTRY_CODE":"US","ELEMENT_SET_NO":"999","PERIAPSIS":"539.135"},{"MEAN_MOTION_DOT":"-0.00000462","RCS_SIZE":"LARGE","EPHEMERIS_TYPE":"0","TLE_LINE1":"1 52833U 22062D   23155.46853745 -.00000462  00000-0 -10934-4 0  9996","TIME_SYSTEM":"UTC","APOAPSIS":"540.493","CLASSIFICATION_TYPE":"U","MEAN_ANOMALY":"304.8963","ARG_OF_PERICENTER":"55.2130","SEMIMAJOR_AXIS":"6917.887","EPOCH":"2023-06-04T11:14:41.635680","MEAN_MOTION":"15.08837897","OBJECT_ID":"2022-062D","MEAN_ELEMENT_THEORY":"SGP4","BSTAR":"-0.00001093400000","ECCENTRICITY":"0.00010710","MEAN_MOTION_DDOT":"0.0000000000000","LAUNCH_DATE":"2022-06-17","PERIOD":"95.438","REV_AT_EPOCH":"5342","NORAD_CAT_ID":"52833","CENTER_NAME":"EARTH","SITE":"AFETR","REF_FRAME":"TEME","RA_OF_ASC_NODE":"244.6907","DECAY_DATE":null,"INCLINATION":"53.2152","GP_ID":"233184560","TLE_LINE2":"2 52833  53.2152 244.6907 0001071  55.2130 304.8963 15.08837897 53421","OBJECT_NAME":"STARLINK-4086","FILE":"3924842","COUNTRY_CODE":"US","OBJECT_TYPE":"PAYLOAD","ELEMENT_SET_NO":"999","PERIAPSIS":"539.011"}];
